NORAD_CAT_ID,OBJECT_NAME,OBJECT_TYPE,EPOCH,MEAN_MOTION,ECCENTRICITY,INCLINATION,RA_OF_ASC_NODE,ARG_OF_PERICENTER,MEAN_ANOMALY,BSTAR,MEAN_MOTION_DOT,MEAN_MOTION_DDOT,TLE_LINE0,TLE_LINE1,TLE_LINE2,SEMIMAJOR_AXIS,PERIOD,APOGEE,PERIGEE,DECAYED
53836.0,STARLINK-4778,PAYLOAD,2022-12-23 11:17:56,15.08014347,0.0001733,53.2174,156.5986,53.0353,307.0797,0.00012649,1.683e-05,0.0,0 STARLINK-4778,1 53836U 22114U   22357.47079654  .00001683  00000-0  12649-3 0  9999,2 53836  53.2174 156.5986 0001733  53.0353 307.0797 15.08014347 16005,6920.405,95.49,543.47,541.071,0.0
53836.0,STARLINK-4778,PAYLOAD,2022-12-23 17:39:41,15.08017676,0.0001753,53.2175,155.4101,53.4711,306.6442,0.00014251,1.933e-05,0.0,0 STARLINK-4778,1 53836U 22114U   22357.73589883  .00001933  00000-0  14251-3 0  9997,2 53836  53.2175 155.4101 0001753  53.4711 306.6442 15.08017676 16041,6920.395,95.49,543.4730000000002,541.047,0.0
53836.0,STARLINK-4778,PAYLOAD,2022-12-23 22:26:00,15.08021779,0.0001766,53.2176,154.5184,52.8382,307.2771,0.00013711,1.849e-05,0.0,0 STARLINK-4778,1 53836U 22114U   22357.93472470  .00001849  00000-0  13711-3 0  9998,2 53836  53.2176 154.5184 0001766  52.8382 307.2771 15.08021779 15538,6920.382,95.489,543.47,541.025,0.0
53836.0,STARLINK-4778,PAYLOAD,2022-12-24 11:09:29,15.08028436,0.0001732,53.2176,152.1411,55.478,304.6375,0.00010405,1.334e-05,0.0,0 STARLINK-4778,1 53836U 22114U   22358.46492859  .00001334  00000-0  10405-3 0  9996,2 53836  53.2176 152.1411 0001732  55.4780 304.6375 15.08028436 16156,6920.361999999999,95.489,543.4259999999998,541.029,0.0
53836.0,STARLINK-4778,PAYLOAD,2022-12-24 17:31:15,15.08020077,0.0001696,53.2177,150.9527,50.4385,309.6757,2.5976e-05,1.19e-06,0.0,0 STARLINK-4778,1 53836U 22114U   22358.73003976  .00000119  00000-0  25976-4 0  9994,2 53836  53.2177 150.9527 0001696  50.4385 309.6757 15.08020077 16192,6920.388000000001,95.489,543.4259999999998,541.0790000000002,0.0
53836.0,STARLINK-4778,PAYLOAD,2022-12-25 03:03:52,15.08025508,0.000177,53.2182,149.1697,50.4761,309.6387,5.5426e-05,5.77e-06,0.0,0 STARLINK-4778,1 53836U 22114U   22359.12769058  .00000577  00000-0  55426-4 0  9999,2 53836  53.2182 149.1697 0001770  50.4761 309.6387 15.08025508 15717,6920.371,95.489,543.461,541.011,0.0
53836.0,STARLINK-4778,PAYLOAD,2022-12-25 11:01:04,15.08023414,0.0001544,53.2205,147.6868,64.4386,295.6765,-4.9351e-05,-1.054e-05,0.0,0 STARLINK-4778,1 53836U 22114U   22359.45907503 -.00001054  00000-0 -49351-4 0  9997,2 53836  53.2205 147.6868 0001544  64.4386 295.6765 15.08023414 16307,6920.377,95.489,543.311,541.174,0.0
53836.0,STARLINK-4778,PAYLOAD,2022-12-25 18:57:57,15.08218462,0.0001233,53.2187,146.1964,104.7459,255.3669,0.0015162,0.00023517,0.0,0 STARLINK-4778,1 53836U 22114U   22359.79025299  .00023517  00000-0  15162-2 0  9994,2 53836  53.2187 146.1964 0001233 104.7459 255.3669 15.08218462 15811,6919.781,95.477,542.499,540.793,0.0
53836.0,STARLINK-4778,PAYLOAD,2022-12-25 22:08:31,15.08443293,0.0001791,53.2185,145.6009,46.8814,313.2327,0.0033465,0.00052794,0.0,0 STARLINK-4778,1 53836U 22114U   22359.92258531  .00052794  00000-0  33465-2 0  9991,2 53836  53.2185 145.6009 0001791  46.8814 313.2327 15.08443293 15832,6919.093000000003,95.463,542.197,539.719,0.0
53836.0,STARLINK-4778,PAYLOAD,2022-12-26 20:24:11,15.08530736,0.0002088,53.2146,141.4385,46.8051,313.3115,0.0032983,0.0005214999999999,0.0,0 STARLINK-4778,1 53836U 22114U   22360.85013140  .00052150  00000-0  32983-2 0  9990,2 53836  53.2146 141.4385 0002088  46.8051 313.3115 15.08530736 15973,6918.826,95.457,542.135,539.246,0.0
53836.0,STARLINK-4778,PAYLOAD,2022-12-27 02:45:46,15.08565273,0.0001838,53.2171,140.251,48.3964,311.7185,0.0032531,0.00051474,0.0,0 STARLINK-4778,1 53836U 22114U   22361.11512229  .00051474  00000-0  32531-2 0  9999,2 53836  53.2171 140.2510 0001838  48.3964 311.7185 15.08565273 16019,6918.72,95.455,541.857,539.314,0.0
53836.0,STARLINK-4778,PAYLOAD,2022-12-27 12:18:09,15.0860174,0.0001317,53.2174,138.4672,39.0899,321.0188,0.0032156,0.00050924,0.0,0 STARLINK-4778,1 53836U 22114U   22361.51260539  .00050924  00000-0  32156-2 0  9999,2 53836  53.2174 138.4672 0001317  39.0899 321.0188 15.08601740 16079,6918.609,95.453,541.385,539.563,0.0
53836.0,STARLINK-4778,PAYLOAD,2022-12-27 15:28:56,15.08616153,0.0001276,53.2171,137.8722,42.1922,317.9168,0.0031833,0.00050426,0.0,0 STARLINK-4778,1 53836U 22114U   22361.64509659  .00050426  00000-0  31833-2 0  9990,2 53836  53.2171 137.8722 0001276  42.1922 317.9168 15.08616153 16639,6918.565,95.452,541.312,539.547,0.0
53836.0,STARLINK-4778,PAYLOAD,2022-12-27 23:25:52,15.08748906,0.0001252999999999,53.2175,136.3837,52.2839,307.8267,0.0014953,0.0002353,0.0,0 STARLINK-4778,1 53836U 22114U   22361.97629938  .00023530  00000-0  14953-2 0  9999,2 53836  53.2175 136.3837 0001253  52.2839 307.8267 15.08748906 16144,6918.159000000002,95.443,540.891,539.1569999999998,0.0
53836.0,STARLINK-4778,PAYLOAD,2022-12-28 12:08:56,15.08844576,0.0001375,53.2175,134.007,42.5271,317.5828,-4.8177e-05,-1.055e-05,0.0,0 STARLINK-4778,1 53836U 22114U   22362.50621284 -.00001055  00000-0 -48177-4 0  9992,2 53836  53.2175 134.0070 0001375  42.5271 317.5828 15.08844576 16764,6917.866,95.437,540.683,538.78,0.0
53836.0,STARLINK-4778,PAYLOAD,2022-12-28 20:05:52,15.0883914,0.0001063,53.2177,132.5205,44.4638,315.6439,-9.0305e-05,-1.725e-05,0.0,0 STARLINK-4778,1 53836U 22114U   22362.83741532 -.00001725  00000-0 -90305-4 0  9991,2 53836  53.2177 132.5205 0001063  44.4638 315.6439 15.08839140 16275,6917.8830000000025,95.438,540.4830000000002,539.013,0.0
53836.0,STARLINK-4778,PAYLOAD,2022-12-30 13:25:52,15.08852672,0.000167,53.2183,124.7862,63.549,296.5673,0.0002273,3.333e-05,0.0,0 STARLINK-4778,1 53836U 22114U   22364.55963680  .00003333  00000-0  22730-3 0  9993,2 53836  53.2183 124.7862 0001670  63.5490 296.5673 15.08852672 16537,6917.842,95.437,540.862,538.5509999999998,0.0
53836.0,STARLINK-4778,PAYLOAD,2022-12-30 18:12:02,15.08846903,0.0001841,53.2171,123.8968,41.8748,318.2384,0.00021074,3.068e-05,0.0,0 STARLINK-4778,1 53836U 22114U   22364.75836125  .00003068  00000-0  21074-3 0  9993,2 53836  53.2171 123.8968 0001841  41.8748 318.2384 15.08846903 16560,6917.859,95.437,540.998,538.451,0.0
53836.0,STARLINK-4778,PAYLOAD,2022-12-31 14:52:03,15.08835908,0.0001996999999999,53.2188,120.0279,43.0409,317.0739,0.00017458,2.491e-05,0.0,0 STARLINK-4778,1 53836U 22114U   22365.61948443  .00002491  00000-0  17458-3 0  9996,2 53836  53.2188 120.0279 0001997  43.0409 317.0739 15.08835908 16690,6917.893,95.438,541.139,538.376,0.0
53836.0,STARLINK-4778,PAYLOAD,2023-01-01 00:24:23,15.08833939,0.0001868,53.2176,118.2467,41.2221,318.8912,-1.6615e-05,-5.53e-06,0.0,0 STARLINK-4778,1 53836U 22114U   23001.01693312 -.00000553  00000-0 -16615-4 0  9994,2 53836  53.2176 118.2467 0001868  41.2221 318.8912 15.08833939 16755,6917.899,95.438,541.056,538.472,0.0
53836.0,STARLINK-4778,PAYLOAD,2023-01-01 09:56:43,15.08828108,0.0001823,53.218,116.4629,39.446,320.6665,-0.00025416,-4.33e-05,0.0,0 STARLINK-4778,1 53836U 22114U   23001.41438736 -.00004330  00000-0 -25416-3 0  9990,2 53836  53.2180 116.4629 0001823  39.4460 320.6665 15.08828108 16810,6917.917,95.438,541.043,538.521,0.0
53836.0,STARLINK-4778,PAYLOAD,2023-01-01 17:53:39,15.08823398,0.000199,53.218,114.9753,39.9206,320.1932,-0.00024337,-4.158e-05,0.0,0 STARLINK-4778,1 53836U 22114U   23001.74559224 -.00004158  00000-0 -24337-3 0  9991,2 53836  53.2180 114.9753 0001990  39.9206 320.1932 15.08823398 17403,6917.931,95.439,541.173,538.419,0.0
53836.0,STARLINK-4778,PAYLOAD,2023-01-02 00:15:11,15.08832879,0.0001902,53.2178,113.7863,38.5164,321.5963,-0.00014383,-2.576e-05,0.0,0 STARLINK-4778,1 53836U 22114U   23002.01054437 -.00002576  00000-0 -14383-3 0  9990,2 53836  53.2178 113.7863 0001902  38.5164 321.5963 15.08832879 16907,6917.901999999999,95.438,541.0830000000002,538.451,0.0
53836.0,STARLINK-4778,PAYLOAD,2023-01-02 09:47:29,15.08838411,0.0001843,53.2184,112.0024,38.4686,321.6437,-5.4799e-05,-1.16e-05,0.0,0 STARLINK-4778,1 53836U 22114U   23002.40797934 -.00001160  00000-0 -54799-4 0  9993,2 53836  53.2184 112.0024 0001843  38.4686 321.6437 15.08838411 16968,6917.885,95.438,541.025,538.475,0.0
53836.0,STARLINK-4778,PAYLOAD,2023-01-02 16:09:01,15.08839743,0.0001983,53.2178,110.813,39.4294,320.6842,0.00010191,1.334e-05,0.0,0 STARLINK-4778,1 53836U 22114U   23002.67293326  .00001334  00000-0  10191-3 0  9996,2 53836  53.2178 110.8130 0001983  39.4294 320.6842 15.08839743 17549,6917.880999999999,95.438,541.118,538.374,0.0
53836.0,STARLINK-4778,PAYLOAD,2023-01-03 08:02:53,15.0884677,0.0002128,53.218,107.8391,39.3248,320.7898,-0.00012396,-2.261e-05,0.0,0 STARLINK-4778,1 53836U 22114U   23003.33533775 -.00002261  00000-0 -12396-3 0  9996,2 53836  53.2180 107.8391 0002128  39.3248 320.7898 15.08846770 17648,6917.86,95.437,541.197,538.253,0.0
53836.0,STARLINK-4778,PAYLOAD,2023-01-03 11:13:40,15.08822777,0.000196,53.2182,107.2445,41.307,318.807,0.00014548,2.027e-05,0.0,0 STARLINK-4778,1 53836U 22114U   23003.46782717  .00002027  00000-0  14548-3 0  9991,2 53836  53.2182 107.2445 0001960  41.3070 318.8070 15.08822777 17127,6917.933000000001,95.439,541.154,538.442,0.0
53836.0,STARLINK-4778,PAYLOAD,2023-01-04 12:39:51,15.08818627,0.0001973,53.218,102.4867,42.1771,317.9372,0.00023911,3.517e-05,0.0,0 STARLINK-4778,1 53836U 22114U   23004.52767583  .00003517  00000-0  23911-3 0  9992,2 53836  53.2180 102.4867 0001973  42.1771 317.9372 15.08818627 17282,6917.946,95.439,541.1759999999998,538.446,0.0
53836.0,STARLINK-4778,PAYLOAD,2023-01-04 23:47:32,15.08843501,0.0002118,53.2188,100.4058,46.4468,313.67,-1.5503e-05,-5.35e-06,0.0,0 STARLINK-4778,1 53836U 22114U   23004.99134490 -.00000535  00000-0 -15503-4 0  9996,2 53836  53.2188 100.4058 0002118  46.4468 313.6700 15.08843501 17357,6917.87,95.437,541.2,538.269,0.0
